[
    {
        "CCSDS_OMM_VERS": "3.0",
        "COMMENT": "GENERATED VIA SPACE-TRACK.ORG API",
        "CREATION_DATE": "2025-04-14T03:05:54",
        "ORIGINATOR": "18 SPCS",
        "OBJECT_NAME": "GALILEO 31 (10D)",
        "OBJECT_ID": "2024-167B",
        "CENTER_NAME": "EARTH",
        "REF_FRAME": "TEME",
        "TIME_SYSTEM": "UTC",
        "MEAN_ELEMENT_THEORY": "SGP4",
        "EPOCH": "2025-04-13T16:56:03.771744",
        "MEAN_MOTION": "1.70474538",
        "ECCENTRICITY": "0.00017590",
        "INCLINATION": "55.3267",
        "RA_OF_ASC_NODE": "233.1014",
        "ARG_OF_PERICENTER": "155.6644",
        "MEAN_ANOMALY": "201.4683",
        "EPHEMERIS_TYPE": "0",
        "CLASSIFICATION_TYPE": "U",
        "NORAD_CAT_ID": "61183",
        "ELEMENT_SET_NO": "999",
        "REV_AT_EPOCH": "352",
        "BSTAR": "0.00000000000000",
        "MEAN_MOTION_DOT": "-0.00000012",
        "MEAN_MOTION_DDOT": "0.0000000000000",
        "SEMIMAJOR_AXIS": "29600.258",
        "PERIOD": "844.701",
        "APOAPSIS": "23227.329",
        "PERIAPSIS": "23216.916",
        "OBJECT_TYPE": "PAYLOAD",
        "RCS_SIZE": "LARGE",
        "COUNTRY_CODE": "ESA",
        "LAUNCH_DATE": "2024-09-17",
        "SITE": "AFETR",
        "DECAY_DATE": null,
        "FILE": "4701263",
        "GP_ID": "285550061",
        "TLE_LINE0": "0 GALILEO 31 (10D)",
        "TLE_LINE1": "1 61183U 24167B   25103.70559921 -.00000012  00000-0  00000-0 0  9992",
        "TLE_LINE2": "2 61183  55.3267 233.1014 0001759 155.6644 201.4683  1.70474538  3529"
    }
]